GLOBALSTAR M023         
1 25621U 99004A   24212.59891172 -.00000094  00000+0  57258-4 0  9995
2 25621  52.0122 312.6638 0010702 136.6428 237.8751 12.62464204175118
GLOBALSTAR M040         
1 25622U 99004B   24212.60688610 -.00000073  00000+0  17319-3 0  9999
2 25622  51.9936 316.3162 0001191  83.5709 289.4337 12.61977851174654
GLOBALSTAR M036         
1 25623U 99004C   24212.60024896 -.00000024  00000+0  86026-3 0  9997
2 25623  51.9992   7.9360 0011560 149.9738 308.8750 11.86572386140805
GLOBALSTAR M038         
1 25624U 99004D   24212.89712706 -.00000055  00000+0  33162-3 0  9990
2 25624  51.9968 276.8368 0002189 112.7172  58.6369 12.32503959162713
GLOBALSTAR M022         
1 25649U 99012A   24212.62839719 -.00000070  00000+0  20776-3 0  9995
2 25649  52.0045  85.0356 0001716 257.7247 117.7752 12.02485553137691
GLOBALSTAR M041         
1 25650U 99012B   24212.55331423 -.00000027  00000+0  74799-3 0  9994
2 25650  52.0040 316.8857 0002900  62.0348 298.0782 11.96656917140027
GLOBALSTAR M046         
1 25651U 99012C   24212.83489500  .00000053  00000+0  15666-2 0  9991
2 25651  52.0063  46.3379 0002161 354.4228  19.1565 12.09393230145130
GLOBALSTAR M037         
1 25652U 99012D   24212.81829642 -.00000062  00000+0  23126-3 0  9997
2 25652  52.0006  82.7308 0001489 171.3177 284.0693 12.62413219170733
